NORAD_CAT_ID,OBJECT_NAME,OBJECT_TYPE,EPOCH,MEAN_MOTION,ECCENTRICITY,INCLINATION,RA_OF_ASC_NODE,ARG_OF_PERICENTER,MEAN_ANOMALY,BSTAR,MEAN_MOTION_DOT,MEAN_MOTION_DDOT,TLE_LINE0,TLE_LINE1,TLE_LINE2,SEMIMAJOR_AXIS,PERIOD,APOGEE,PERIGEE,DECAYED
52664.0,STARLINK-4070,PAYLOAD,2024-03-27 11:12:23,15.0886867,0.000156,53.2165,111.4108,83.9014,276.2156,0.00074187,0.00011548,0.0,0 STARLINK-4070,1 52664U 22053J   24087.46694132  .00011548  00000-0  74187-3 0  9990,2 52664  53.2165 111.4108 0001560  83.9014 276.2156 15.08868670103529,6917.793,95.436,540.737,538.579,0.0
52664.0,STARLINK-4070,PAYLOAD,2024-03-27 19:09:19,15.08854114,0.000161,53.2168,109.924,88.3289,271.7888,0.00046622,7.143e-05,0.0,0 STARLINK-4070,1 52664U 22053J   24087.79814694  .00007143  00000-0  46622-3 0  9992,2 52664  53.2168 109.9240 0001610  88.3289 271.7888 15.08854114103575,6917.837,95.437,540.816,538.588,0.0
52664.0,STARLINK-4070,PAYLOAD,2024-03-28 11:03:10,15.08856715,0.0001622,53.2166,106.9515,86.2149,273.9029,0.00038754,5.888e-05,0.0,0 STARLINK-4070,1 52664U 22053J   24088.46054272  .00005888  00000-0  38754-3 0  9996,2 52664  53.2166 106.9515 0001622  86.2149 273.9029 15.08856715103671,6917.829,95.436,540.816,538.572,0.0
52664.0,STARLINK-4070,PAYLOAD,2024-03-29 04:32:25,15.0884743,0.0001656,53.216,103.6787,85.129,274.9891,-0.00021198,-3.661e-05,0.0,0 STARLINK-4070,1 52664U 22053J   24089.18918361 -.00003661  00000-0 -21198-3 0  9997,2 52664  53.2160 103.6787 0001656  85.1290 274.9891 15.08847430103786,6917.858,95.437,540.868,538.577,0.0
52664.0,STARLINK-4070,PAYLOAD,2024-03-29 10:53:57,15.08850197,0.0001513,53.2159,102.4901,88.566,271.5505,-0.00031581,-5.312e-05,0.0,0 STARLINK-4070,1 52664U 22053J   24089.45414005 -.00005312  00000-0 -31581-3 0  9995,2 52664  53.2159 102.4901 0001513  88.5660 271.5505 15.08850197103823,6917.849,95.437,540.761,538.668,0.0
52664.0,STARLINK-4070,PAYLOAD,2024-03-29 17:15:30,15.08849963,0.0001494,53.2159,101.3009,89.7234,270.3929,-0.0002347,-4.022e-05,0.0,0 STARLINK-4070,1 52664U 22053J   24089.71909911 -.00004022  00000-0 -23470-3 0  9994,2 52664  53.2159 101.3009 0001494  89.7234 270.3929 15.08849963103868,6917.85,95.437,540.748,538.681,0.0
52664.0,STARLINK-4070,PAYLOAD,2024-03-30 07:33:58,15.08847742,0.0001551,53.2162,98.6261,93.7648,266.3522,6.691e-05,7.77e-06,0.0,0 STARLINK-4070,1 52664U 22053J   24090.31526008  .00000777  00000-0  66910-4 0  9992,2 52664  53.2162  98.6261 0001551  93.7648 266.3522 15.08847742103955,6917.857,95.437,540.795,538.649,0.0
52664.0,STARLINK-4070,PAYLOAD,2024-03-30 23:27:50,15.08840242,0.0001508,53.2156,95.6528,97.6312,262.4851,0.00018914,2.723e-05,0.0,0 STARLINK-4070,1 52664U 22053J   24090.97766498  .00002723  00000-0  18914-3 0  9996,2 52664  53.2156  95.6528 0001508  97.6312 262.4851 15.08840242104056,6917.88,95.438,540.788,538.701,0.0
52664.0,STARLINK-4070,PAYLOAD,2024-03-31 04:13:59,15.08840441,0.0001499,53.2158,94.7607,97.7477,262.3685,0.00016175,2.287e-05,0.0,0 STARLINK-4070,1 52664U 22053J   24091.17638482  .00002287  00000-0  16175-3 0  9992,2 52664  53.2158  94.7607 0001499  97.7477 262.3685 15.08840441104086,6917.879,95.438,540.781,538.707,0.0
52664.0,STARLINK-4070,PAYLOAD,2024-03-31 07:24:45,15.08842718,0.0001492,53.216,94.1662,98.1901,261.926,0.0001828,2.623e-05,0.0,0 STARLINK-4070,1 52664U 22053J   24091.30886370  .00002623  00000-0  18280-3 0  9991,2 52664  53.2160  94.1662 0001492  98.1901 261.9260 15.08842718104100,6917.872,95.437,540.769,538.705,0.0
52664.0,STARLINK-4070,PAYLOAD,2024-03-31 16:57:04,15.08842251,0.0001484,53.2162,92.3821,96.9977,263.1184,0.00013058,1.791e-05,0.0,0 STARLINK-4070,1 52664U 22053J   24091.70630297  .00001791  00000-0  13058-3 0  9993,2 52664  53.2162  92.3821 0001484  96.9977 263.1184 15.08842251104166,6917.874,95.437,540.765,538.712,0.0
52664.0,STARLINK-4070,PAYLOAD,2024-04-01 10:26:19,15.08845227,0.00015,53.2176,89.1113,96.0543,264.062,9.0885e-05,1.159e-05,0.0,0 STARLINK-4070,1 52664U 22053J   24092.43494292  .00001159  00000-0  90885-4 0  9999,2 52664  53.2176  89.1113 0001500  96.0543 264.0620 15.08845227104271,6917.864,95.437,540.767,538.692,0.0
52664.0,STARLINK-4070,PAYLOAD,2024-04-02 03:55:34,15.08831996,0.000153,53.2183,85.8407,95.2009,264.9158,-6.7719e-07,-2.99e-06,0.0,0 STARLINK-4070,1 52664U 22053J   24093.16359433 -.00000299  00000-0 -67719-6 0  9995,2 52664  53.2183  85.8407 0001530  95.2009 264.9158 15.08831996104384,6917.905,95.438,540.828,538.711,0.0
52664.0,STARLINK-4070,PAYLOAD,2024-04-02 07:06:20,15.08835267,0.0001451,53.2178,85.2434,88.5734,271.5424,-2.7352e-05,-7.23e-06,0.0,0 STARLINK-4070,1 52664U 22053J   24093.29607292 -.00000723  00000-0 -27352-4 0  9997,2 52664  53.2178  85.2434 0001451  88.5734 271.5424 15.08835267104402,6917.895,95.438,540.764,538.756,0.0
52664.0,STARLINK-4070,PAYLOAD,2024-04-02 16:38:39,15.08839676,0.0001466,53.2176,83.4601,88.689,271.427,2.4595e-05,1.03e-06,0.0,0 STARLINK-4070,1 52664U 22053J   24093.69350886  .00000103  00000-0  24595-4 0  9991,2 52664  53.2176  83.4601 0001466  88.6890 271.4270 15.08839676104468,6917.881,95.438,540.761,538.732,0.0
52664.0,STARLINK-4070,PAYLOAD,2024-04-02 23:00:11,15.08839277,0.0001525,53.218,82.2696,89.5058,270.6108,6.4968e-05,7.46e-06,0.0,0 STARLINK-4070,1 52664U 22053J   24093.95846830  .00000746  00000-0  64968-4 0  9990,2 52664  53.2180  82.2696 0001525  89.5058 270.6108 15.08839277104509,6917.883,95.438,540.803,538.693,0.0
52664.0,STARLINK-4070,PAYLOAD,2024-04-03 05:21:43,15.08845937,0.0001468,53.2175,81.0806,89.0352,271.0808,0.00011678,1.571e-05,0.0,0 STARLINK-4070,1 52664U 22053J   24094.22342193  .00001571  00000-0  11678-3 0  9990,2 52664  53.2175  81.0806 0001468  89.0352 271.0808 15.08845937104547,6917.862,95.437,540.743,538.712,0.0
52664.0,STARLINK-4070,PAYLOAD,2024-04-03 22:50:58,15.08838086,0.0001345,53.2172,77.8101,89.6168,270.4978,0.0001467,2.047e-05,0.0,0 STARLINK-4070,1 52664U 22053J   24094.95206398  .00002047  00000-0  14670-3 0  9990,2 52664  53.2172  77.8101 0001345  89.6168 270.4978 15.08838086104650,6917.886,95.438,540.682,538.821,0.0
52664.0,STARLINK-4070,PAYLOAD,2024-04-04 05:12:30,15.08840364,0.0001345,53.2173,76.6201,94.2513,265.8633,0.00016267,2.302e-05,0.0,0 STARLINK-4070,1 52664U 22053J   24095.21702315  .00002302  00000-0  16267-3 0  9998,2 52664  53.2173  76.6201 0001345  94.2513 265.8633 15.08840364104697,6917.879,95.438,540.675,538.814,0.0
52664.0,STARLINK-4070,PAYLOAD,2024-04-04 08:23:16,15.08843278,0.0001344,53.2173,76.0254,94.2553,265.8593,0.00015218,2.135e-05,0.0,0 STARLINK-4070,1 52664U 22053J   24095.34950201  .00002135  00000-0  15218-3 0  9990,2 52664  53.2173  76.0254 0001344  94.2553 265.8593 15.08843278104717,6917.87,95.437,540.665,538.806,0.0
52664.0,STARLINK-4070,PAYLOAD,2024-04-04 16:20:13,15.08837965,0.0001317,53.2171,74.538,94.8419,265.2724,7.2872e-05,8.72e-06,0.0,0 STARLINK-4070,1 52664U 22053J   24095.68070709  .00000872  00000-0  72872-4 0  9999,2 52664  53.2171  74.5380 0001317  94.8419 265.2724 15.08837965104766,6917.887,95.438,540.663,538.841,0.0
52664.0,STARLINK-4070,PAYLOAD,2024-04-05 05:03:18,15.08838918,0.000134,53.2173,72.1582,99.7873,260.3271,2.8576e-05,1.67e-06,0.0,0 STARLINK-4070,1 52664U 22053J   24096.21062722  .00000167  00000-0  28576-4 0  9994,2 52664  53.2173  72.1582 0001340  99.7873 260.3271 15.08838918104841,6917.884,95.438,540.676,538.822,0.0
52664.0,STARLINK-4070,PAYLOAD,2024-04-05 08:14:04,15.08845189,0.0001461,53.2175,71.5634,106.4803,253.635,-5.5201e-05,-1.167e-05,0.0,0 STARLINK-4070,1 52664U 22053J   24096.34310453 -.00001167  00000-0 -55201-4 0  9993,2 52664  53.2175  71.5634 0001461 106.4803 253.6350 15.08845189104860,6917.865,95.437,540.74,538.719,0.0
52664.0,STARLINK-4070,PAYLOAD,2024-04-06 04:54:04,15.08846208,0.0001384,53.2184,67.6996,91.8625,268.2526,8.497e-05,1.065e-05,0.0,0 STARLINK-4070,1 52664U 22053J   24097.20421946  .00001065  00000-0  84970-4 0  9999,2 52664  53.2184  67.6996 0001384  91.8625 268.2526 15.08846208104994,6917.861,95.437,540.684,538.769,0.0
52664.0,STARLINK-4070,PAYLOAD,2024-04-06 14:26:23,15.08841908,0.0001373,53.2182,65.9157,91.0332,269.0817,-2.5981e-06,-3.29e-06,0.0,0 STARLINK-4070,1 52664U 22053J   24097.60166396 -.00000329  00000-0 -25981-5 0  9990,2 52664  53.2182  65.9157 0001373  91.0332 269.0817 15.08841908105059,6917.875,95.437,540.689,538.79,0.0
52664.0,STARLINK-4070,PAYLOAD,2024-04-06 20:47:56,15.08835227,0.0001863,53.218,64.7266,88.1912,271.9294,5.6994e-05,6.19e-06,0.0,0 STARLINK-4070,1 52664U 22053J   24097.86662892  .00000619  00000-0  56994-4 0  9997,2 52664  53.2180  64.7266 0001863  88.1912 271.9294 15.08835227105092,6917.895,95.438,541.049,538.471,0.0
52664.0,STARLINK-4070,PAYLOAD,2024-04-07 04:44:52,15.08822406,0.0001485,53.2185,63.24,92.241,267.8752,0.00021377,3.114e-05,0.0,0 STARLINK-4070,1 52664U 22053J   24098.19783181  .00003114  00000-0  21377-3 0  9998,2 52664  53.2185  63.2400 0001485  92.2410 267.8752 15.08822406105144,6917.934,95.439,540.826,538.772,0.0
52664.0,STARLINK-4070,PAYLOAD,2024-04-07 14:17:11,15.08837874,0.0001383,53.2182,61.4561,91.2277,268.8874,1.2192e-05,-9.4e-07,0.0,0 STARLINK-4070,1 52664U 22053J   24098.59526906 -.00000094  00000-0  12192-4 0  9993,2 52664  53.2182  61.4561 0001383  91.2277 268.8874 15.08837874105204,6917.887,95.438,540.709,538.795,0.0
52664.0,STARLINK-4070,PAYLOAD,2024-04-08 04:35:40,15.08805008,0.0001656,53.2194,58.7805,102.2916,257.8262,0.00036201,5.473e-05,0.0,0 STARLINK-4070,1 52664U 22053J   24099.19144002  .00005473  00000-0  36201-3 0  9994,2 52664  53.2194  58.7805 0001656 102.2916 257.8262 15.08805008105295,6917.987,95.44,540.998,538.707,0.0
52664.0,STARLINK-4070,PAYLOAD,2024-04-08 14:07:58,15.08841361,0.0001491,53.2197,56.9963,95.9484,264.1678,-3.1854e-05,-7.95e-06,0.0,0 STARLINK-4070,1 52664U 22053J   24099.58887129 -.00000795  00000-0 -31854-4 0  9995,2 52664  53.2197  56.9963 0001491  95.9484 264.1678 15.08841361105359,6917.876,95.437,540.773,538.71,0.0
